{
  "type": "FeatureCollection",
  "features": [
    {
      "type": "Feature",
      "properties": {
        "norad_id": 41831,
        "name": "FENGYUN 1C DEB",
        "group": "fengyun-1c-debris",
        "lat": -33.413840325385216,
        "lon": -130.03370211903447,
        "alt_km": 775.516099621439,
        "timestamp": "2025-12-14T22:38:41.048217+00:00",
        "meta_object_name": "FENGYUN 1C DEB",
        "meta_object_id": "1999-025EYJ",
        "meta_epoch": "2025-12-14T03:06:01.069056",
        "meta_mean_motion": 14.24580132,
        "meta_eccentricity": 0.00563161,
        "meta_inclination": 98.7348,
        "meta_ra_of_asc_node": 54.9779,
        "meta_arg_of_pericenter": 217.2554,
        "meta_mean_anomaly": 142.4712,
        "meta_ephemeris_type": 0,
        "meta_classification_type": "U",
        "meta_norad_cat_id": 41831,
        "meta_element_set_no": 999,
        "meta_rev_at_epoch": 47279,
        "meta_bstar": 0.0018530412,
        "meta_mean_motion_dot": 4.331e-05,
        "meta_mean_motion_ddot": 0,
        "tle_line1": "1 41831U 99025EYJ 25348.12917904  .00004331  00000+0  18530-2 0  9996",
        "tle_line2": "2 41831  98.7348  54.9779 0056316 217.2554 142.4712 14.24580132472796"
      },
      "geometry": {
        "type": "Point",
        "coordinates": [
          -130.03370211903447,
          -33.413840325385216
        ]
      }
    },
    {
      "type": "Feature",
      "properties": {
        "norad_id": 41832,
        "name": "FENGYUN 1C DEB",
        "group": "fengyun-1c-debris",
        "lat": -80.52417845733528,
        "lon": 165.95973400135506,
        "alt_km": 790.9215259321036,
        "timestamp": "2025-12-14T22:38:41.048228+00:00",
        "meta_object_name": "FENGYUN 1C DEB",
        "meta_object_id": "1999-025EYK",
        "meta_epoch": "2025-12-13T16:44:07.440576",
        "meta_mean_motion": 14.2424639,
        "meta_eccentricity": 0.00556425,
        "meta_inclination": 98.7286,
        "meta_ra_of_asc_node": 51.7135,
        "meta_arg_of_pericenter": 222.891,
        "meta_mean_anomaly": 136.7922,
        "meta_ephemeris_type": 0,
        "meta_classification_type": "U",
        "meta_norad_cat_id": 41832,
        "meta_element_set_no": 999,
        "meta_rev_at_epoch": 47364,
        "meta_bstar": 0.0020842547,
        "meta_mean_motion_dot": 4.844e-05,
        "meta_mean_motion_ddot": 0,
        "tle_line1": "1 41832U 99025EYK 25347.69730834  .00004844  00000+0  20843-2 0  9992",
        "tle_line2": "2 41832  98.7286  51.7135 0055642 222.8910 136.7922 14.24246390473647"
      },
      "geometry": {
        "type": "Point",
        "coordinates": [
          165.95973400135506,
          -80.52417845733528
        ]
      }
    },
    {
      "type": "Feature",
      "properties": {
        "norad_id": 41833,
        "name": "FENGYUN 1C DEB",
        "group": "fengyun-1c-debris",
        "lat": 53.525246107070025,
        "lon": -109.47292994789171,
        "alt_km": 801.380030453889,
        "timestamp": "2025-12-14T22:38:41.048238+00:00",
        "meta_object_name": "FENGYUN 1C DEB",
        "meta_object_id": "1999-025EYL",
        "meta_epoch": "2025-12-14T03:31:38.766144",
        "meta_mean_motion": 14.25826314,
        "meta_eccentricity": 0.0054471,
        "meta_inclination": 98.7482,
        "meta_ra_of_asc_node": 57.7103,
        "meta_arg_of_pericenter": 219.2298,
        "meta_mean_anomaly": 140.4929,
        "meta_ephemeris_type": 0,
        "meta_classification_type": "U",
        "meta_norad_cat_id": 41833,
        "meta_element_set_no": 999,
        "meta_rev_at_epoch": 47384,
        "meta_bstar": 0.0020046223,
        "meta_mean_motion_dot": 4.8e-05,
        "meta_mean_motion_ddot": 0,
        "tle_line1": "1 41833U 99025EYL 25348.14697646  .00004800  00000+0  20046-2 0  9994",
        "tle_line2": "2 41833  98.7482  57.7103 0054471 219.2298 140.4929 14.25826314473847"
      },
      "geometry": {
        "type": "Point",
        "coordinates": [
          -109.47292994789171,
          53.525246107070025
        ]
      }
    },
    {
      "type": "Feature",
      "properties": {
        "norad_id": 43213,
        "name": "FENGYUN 1C DEB",
        "group": "fengyun-1c-debris",
        "lat": -44.56755506613931,
        "lon": 62.04029370518837,
        "alt_km": 821.3027202745325,
        "timestamp": "2025-12-14T22:38:41.048248+00:00",
        "meta_object_name": "FENGYUN 1C DEB",
        "meta_object_id": "1999-025EYM",
        "meta_epoch": "2025-12-11T15:35:29.120640",
        "meta_mean_motion": 14.2384299,
        "meta_eccentricity": 0.00550482,
        "meta_inclination": 98.7346,
        "meta_ra_of_asc_node": 50.0589,
        "meta_arg_of_pericenter": 230.6376,
        "meta_mean_anomaly": 128.9918,
        "meta_ephemeris_type": 0,
        "meta_classification_type": "U",
        "meta_norad_cat_id": 43213,
        "meta_element_set_no": 999,
        "meta_rev_at_epoch": 40357,
        "meta_bstar": 0.0023267016,
        "meta_mean_motion_dot": 5.369e-05,
        "meta_mean_motion_ddot": 0,
        "tle_line1": "1 43213U 99025EYM 25345.64964260  .00005369  00000+0  23267-2 0  9998",
        "tle_line2": "2 43213  98.7346  50.0589 0055048 230.6376 128.9918 14.23842990403577"
      },
      "geometry": {
        "type": "Point",
        "coordinates": [
          62.04029370518837,
          -44.56755506613931
        ]
      }
    },
    {
      "type": "Feature",
      "properties": {
        "norad_id": 43214,
        "name": "FENGYUN 1C DEB",
        "group": "fengyun-1c-debris",
        "lat": -60.946545101208216,
        "lon": -142.42791120169645,
        "alt_km": 781.4103882613626,
        "timestamp": "2025-12-14T22:38:41.048258+00:00",
        "meta_object_name": "FENGYUN 1C DEB",
        "meta_object_id": "1999-025EYN",
        "meta_epoch": "2025-12-14T02:57:44.684640",
        "meta_mean_motion": 14.24143667,
        "meta_eccentricity": 0.00554506,
        "meta_inclination": 98.7365,
        "meta_ra_of_asc_node": 52.8265,
        "meta_arg_of_pericenter": 222.7496,
        "meta_mean_anomaly": 136.9363,
        "meta_ephemeris_type": 0,
        "meta_classification_type": "U",
        "meta_norad_cat_id": 43214,
        "meta_element_set_no": 999,
        "meta_rev_at_epoch": 40423,
        "meta_bstar": 0.0018666925,
        "meta_mean_motion_dot": 4.324e-05,
        "meta_mean_motion_ddot": 0,
        "tle_line1": "1 43214U 99025EYN 25348.12343385  .00004324  00000+0  18667-2 0  9992",
        "tle_line2": "2 43214  98.7365  52.8265 0055450 222.7496 136.9363 14.24143667404235"
      },
      "geometry": {
        "type": "Point",
        "coordinates": [
          -142.42791120169645,
          -60.946545101208216
        ]
      }
    },
    {
      "type": "Feature",
      "properties": {
        "norad_id": 43358,
        "name": "FENGYUN 1C DEB",
        "group": "fengyun-1c-debris",
        "lat": 34.34485196533866,
        "lon": 102.66403418125083,
        "alt_km": 1366.7532725333222,
        "timestamp": "2025-12-14T22:38:41.048268+00:00",
        "meta_object_name": "FENGYUN 1C DEB",
        "meta_object_id": "1999-025EYP",
        "meta_epoch": "2025-12-13T21:22:37.771680",
        "meta_mean_motion": 13.40374508,
        "meta_eccentricity": 0.03677323,
        "meta_inclination": 98.6864,
        "meta_ra_of_asc_node": 107.7542,
        "meta_arg_of_pericenter": 199.7898,
        "meta_mean_anomaly": 158.8646,
        "meta_ephemeris_type": 0,
        "meta_classification_type": "U",
        "meta_norad_cat_id": 43358,
        "meta_element_set_no": 999,
        "meta_rev_at_epoch": 53746,
        "meta_bstar": 0.0028121101,
        "meta_mean_motion_dot": 2.252e-05,
        "meta_mean_motion_ddot": 0,
        "tle_line1": "1 43358U 99025EYP 25347.89071495  .00002252  00000+0  28121-2 0  9998",
        "tle_line2": "2 43358  98.6864 107.7542 0367732 199.7898 158.8646 13.40374508537469"
      },
      "geometry": {
        "type": "Point",
        "coordinates": [
          102.66403418125083,
          34.34485196533866
        ]
      }
    },
    {
      "type": "Feature",
      "properties": {
        "norad_id": 43359,
        "name": "FENGYUN 1C DEB",
        "group": "fengyun-1c-debris",
        "lat": 43.505196923161016,
        "lon": -102.3042474040442,
        "alt_km": 842.4866460438834,
        "timestamp": "2025-12-14T22:38:41.048278+00:00",
        "meta_object_name": "FENGYUN 1C DEB",
        "meta_object_id": "1999-025EYQ",
        "meta_epoch": "2025-12-12T04:12:29.231712",
        "meta_mean_motion": 14.2315446,
        "meta_eccentricity": 0.007351,
        "meta_inclination": 99.0531,
        "meta_ra_of_asc_node": 66.1463,
        "meta_arg_of_pericenter": 16.6084,
        "meta_mean_anomaly": 343.7477,
        "meta_ephemeris_type": 0,
        "meta_classification_type": "U",
        "meta_norad_cat_id": 43359,
        "meta_element_set_no": 999,
        "meta_rev_at_epoch": 47741,
        "meta_bstar": 0.003026964,
        "meta_mean_motion_dot": 6.99e-05,
        "meta_mean_motion_ddot": 0,
        "tle_line1": "1 43359U 99025EYQ 25346.17533833  .00006990  00000+0  30270-2 0  9999",
        "tle_line2": "2 43359  99.0531  66.1463 0073510  16.6084 343.7477 14.23154460477418"
      },
      "geometry": {
        "type": "Point",
        "coordinates": [
          -102.3042474040442,
          43.505196923161016
        ]
      }
    }
  ]
}